satname,norad_id,inclination_deg,eccentricity,mean_motion_rev_per_day,perigee_km,apogee_km,l1,l2
STARLINK-1143,45179,53.0475,0.0007528,15.62483616,375.3976631010137,385.57344521855794,1 45179U 20012B   26067.03090410  .00142651  00000+0  15511-2 0  9992,2 45179  53.0475 338.0195 0007528  93.3647 266.8228 15.62483616335664
STARLINK-1202,45183,53.1615,0.0001441,15.3020649,474.20812627679607,476.18325675849064,1 45183U 20012F   26067.25158201  .00006278  00000+0  22386-3 0  9997,2 45183  53.1615  45.9304 0001441  80.5745 279.5419 15.30206490334735
STARLINK-1216,45185,53.1629,0.0001501,15.30190495,474.21475737743003,476.2721421884544,1 45185U 20012H   26067.37273732  .00000775  00000+0  38318-4 0  9998,2 45185  53.1629  45.3434 0001501  87.9297 272.1876 15.30190495334698
STARLINK-1225,45187,53.16,0.0001179,15.3018621,474.4482291193899,476.06425924636915,1 45187U 20012K   26067.30431387 -.00008138  00000+0 -26304-3 0  9999,2 45187  53.1600  46.1040 0001179  95.4590 264.6545 15.30186210334725
STARLINK-1230,45189,53.1608,0.0001369,15.30191033,474.3036158320965,476.1800709594181,1 45189U 20012M   26067.24850235  .00000657  00000+0  34305-4 0  9998,2 45189  53.1608  46.4239 0001369  81.8229 278.2927 15.30191033331942
STARLINK-1234,45190,53.0449,0.0003377,15.6181246,380.1386252810853,384.70470660406227,1 45190U 20012N   26067.11632067  .00135329  00000+0  15134-2 0  9999,2 45190  53.0449 332.9902 0003377 307.3528  52.7177 15.61812460335635
STARLINK-1269,45197,53.1616,0.0001359,15.30193088,474.30433413216633,476.16708083406047,1 45197U 20012V   26067.37594794  .00000105  00000+0  15689-4 0  9998,2 45197  53.1616  45.6888 0001359  90.7779 269.3378 15.30193088334710
STARLINK-1154,45198,53.0492,0.0007304,15.45768331,424.14939718958703,434.0934402876801,1 45198U 20012W   26067.26374917  .00109282  00000+0  21978-2 0  9992,2 45198  53.0492  16.8081 0007304  83.2134 276.9703 15.45768331335076
STARLINK-1199,45201,53.157,0.0001611,15.29370052,476.5897907177723,478.7987395513983,1 45201U 20012Z   26067.27906250  .00003584  00000+0  13643-3 0  9998,2 45201  53.1570  30.3809 0001611  91.3724 268.7461 15.29370052334944
STARLINK-1209,45206,53.0475,0.0005777,15.50606686,411.0292258750087,418.87796274767607,1 45206U 20012AE  26066.99952805  .00072471  00000+0  12402-2 0  9990,2 45206  53.0475 341.5665 0005777 271.6098  88.4248 15.50606686334650
STARLINK-1231,45212,53.0512,0.0004069,15.20949716,500.1747150850615,505.7745637372145,1 45212U 20012AL  26067.10305170  .00059865  00000+0  26621-2 0  9998,2 45212  53.0512  23.0776 0004069  72.3919 287.7521 15.20949716334980
STARLINK-1271,45217,53.1611,0.0001408,15.30198345,474.25505828831956,476.1849636226052,1 45217U 20012AR  26067.60440462  .00001505  00000+0  62943-4 0  9999,2 45217  53.1611  29.0010 0001408  97.6613 262.4548 15.30198345334993
STARLINK-1191,45222,53.1609,0.0001347,15.3019074,474.3195680015797,476.16586849767737,1 45222U 20012AW  26067.10192428  .00010052  00000+0  35116-3 0  9994,2 45222  53.1609   6.1992 0001347  88.8691 271.2464 15.30190740335279
STARLINK-1212,45223,53.0499,0.0006061,15.51833686,407.2572379983849,415.4874812441176,1 45223U 20012AX  26067.62757856  .00122684  00000+0  19916-2 0  9998,2 45223  53.0499 355.2018 0006061 109.4378 250.7286 15.51833686335475
STARLINK-1215,45225,53.1619,0.0001291,15.30197971,474.33635912000864,476.1058961885692,1 45225U 20012AZ  26067.08814489  .00003478  00000+0  12951-3 0  9998,2 45225  53.1619   5.7437 0001291  84.7906 275.3242 15.30197971335232
STARLINK-1221,45227,53.065,0.0003128,15.41873308,438.44786452364133,442.71365435394546,1 45227U 20012BB  26067.61521017  .00021176  00000+0  49938-3 0  9991,2 45227  53.0650 274.7068 0003128  48.2721 311.8550 15.41873308336547
STARLINK-1222,45228,53.0569,0.0004002,15.49397099,415.76862225479726,421.20864141051607,1 45228U 20012BC  26067.20179793  .00040154  00000+0  72387-3 0  9998,2 45228  53.0569 349.9450 0004002  80.7857 279.3603 15.49397099335395
STARLINK-1226,45229,53.1613,0.0001199,15.30189682,474.4241566736182,476.06759788759064,1 45229U 20012BD  26067.05237783  .00001722  00000+0  70282-4 0  9997,2 45229  53.1613   6.2234 0001199  98.1983 261.9153 15.30189682335166
STARLINK-1227,45230,53.1599,5.97e-05,15.31030411,472.3277354495867,473.1457297732604,1 45230U 20012BE  26067.27063939 -.00000807  00000+0 -14656-4 0  9991,2 45230  53.1599   5.4667 0000597 141.0467 219.0577 15.31030411335315
STARLINK-1246,45235,53.1611,0.0001398,15.30193997,474.27489222880104,476.19109447894243,1 45235U 20012BK  26067.25474705  .00001845  00000+0  74435-4 0  9993,2 45235  53.1611  45.9141 0001398  89.5469 270.5692 15.30193997334754
STARLINK-1270,45237,53.0485,0.0003906,15.46788741,423.469530761251,428.7850220139644,1 45237U 20012BM  26067.48413401  .00102495  00000+0  19938-2 0  9994,2 45237  53.0485 353.3156 0003906  91.7285 268.4169 15.46788741335484
STARLINK-1279,45360,53.0423,8.65e-05,15.56903234,396.0397827701263,397.21181673448336,1 45360U 20019A   26067.41346449  .00072884  00000+0  99284-3 0  9999,2 45360  53.0423 104.8769 0000865 124.8234 235.2858 15.56903234330473
STARLINK-1301,45361,53.0422,0.0001247,15.64772035,373.05248471753566,374.73644136441817,1 45361U 20019B   26067.51059095  .00072938  00000+0  73462-3 0  9999,2 45361  53.0422 109.8580 0001247 186.9081 173.1916 15.64772035330425
STARLINK-1262,45366,53.1476,0.0001359,15.27680098,481.81698852420413,483.68177744309924,1 45366U 20019G   26067.66667824  .00850700  00000+0  28552-1 0  9994,2 45366  53.1476 169.8528 0001359 100.4516 126.7980 15.27680098  5741
STARLINK-1273,45367,53.0508,0.0001952,15.44058085,432.81735193155964,435.47686764802165,1 45367U 20019H   26067.62850791  .00080652  00000+0  17293-2 0  9990,2 45367  53.0508 159.8621 0001952 356.7705   3.3288 15.44058085329738
STARLINK-1276,45368,53.0569,0.0001341,15.06399092,546.2856512140943,548.1430304437035,1 45368U 20019J   26067.55677208  .00000339  00000+0  41630-4 0  9991,2 45368  53.0569 171.7047 0001341  94.3478 265.7665 15.06399092329563
STARLINK-1277,45369,53.0516,0.0003621,15.48604856,418.344571240239,423.2683661002502,1 45369U 20019K   26067.53275871  .00094605  00000+0  17303-2 0  9997,2 45369  53.0516 158.1559 0003621   7.6245 352.4817 15.48604856329752
STARLINK-1281,45370,53.1541,8.7e-05,15.29226437,477.52700047205235,478.71998979820546,1 45370U 20019L   26067.66667824  .00158006  00000+0  53937-2 0  9995,2 45370  53.1541 170.0246 0000870  67.1595 164.4391 15.29226437  5686
STARLINK-1300,45374,53.1548,0.0001,15.29328416,477.1331024388728,478.504293578475,1 45374U 20019Q   26067.66667824  .00058878  00000+0  20383-2 0  9994,2 45374  53.1548 169.9832 0001000  90.7226  44.1929 15.29328416  5809
STARLINK-1302,45375,53.0523,0.0002858,15.53539285,404.4630529926508,408.3410955274967,1 45375U 20019R   26067.66667824  .00042127  00000+0  65481-3 0  9994,2 45375  53.0523 156.6948 0002858 298.5175   7.3980 15.53539285  5854
STARLINK-1304,45376,53.0499,0.0002174,15.48050507,420.95104000680567,423.90792631368276,1 45376U 20019S   26067.61250078  .00090486  00000+0  16887-2 0  9995,2 45376  53.0499 154.6532 0002174 324.1481  35.9380 15.48050507329805
STARLINK-1305,45377,53.0446,0.000274,15.52748601,406.8454800807922,410.5646695377882,1 45377U 20019T   26067.48730310  .00108545  00000+0  17099-2 0  9995,2 45377  53.0446 138.0560 0002740  99.5113 260.6206 15.52748601330034
STARLINK-1319,45379,53.0442,0.0002135,15.65094559,371.5254621527274,374.4081834850722,1 45379U 20019V   26067.58527493  .00069372  00000+0  69036-3 0  9997,2 45379  53.0442 135.1340 0002135  58.5208 301.6015 15.65094559330083
STARLINK-1266,45383,53.0497,0.0004054,15.452212,427.96788330711206,433.48851120904874,1 45383U 20019Z   26067.49472661  .00081603  00000+0  16813-2 0  9993,2 45383  53.0497 138.6584 0004054   8.4062 351.7011 15.45221200330018
STARLINK-1267,45384,53.0504,0.000297,15.49478474,416.2321406486144,420.2691949232785,1 45384U 20019AA  26067.45892613  .00111863  00000+0  19785-2 0  9996,2 45384  53.0504 132.9078 0002970 265.1498  94.9171 15.49478474330095
STARLINK-1272,45386,53.0443,0.0002008,15.56132434,397.50195839396656,400.22360150559507,1 45386U 20019AC  26067.38378848  .00122196  00000+0  16976-2 0  9999,2 45386  53.0443 116.1050 0002008 108.9717 251.1511 15.56132434330325
STARLINK-1274,45387,53.0278,0.0003623,15.46792133,423.65214754392946,428.5825102306417,1 45387U 20019AD  26067.43004060  .00100445  00000+0  19544-2 0  9995,2 45387  53.0278 108.9533 0003623 232.2133 127.8546 15.46792133330429
STARLINK-1280,45388,53.0425,0.0001205,15.65353522,371.4088083827701,373.03564495639694,1 45388U 20019AE  26067.43773207  .00082402  00000+0  80935-3 0  9997,2 45388  53.0425 128.6358 0001205  88.4226 271.6927 15.65353522330142
STARLINK-1283,45389,53.0426,0.0003497,15.56198738,396.3004334422594,401.0401324559534,1 45389U 20019AF  26067.66667824  .00129587  00000+0  17936-2 0  9996,2 45389  53.0426 114.9495 0003497 244.4418 329.5052 15.56198738  5817
STARLINK-1284,45390,53.048,0.0003516,15.51524353,409.8872534893426,414.66227104056634,1 45390U 20019AG  26067.45453534  .00103755  00000+0  17090-2 0  9996,2 45390  53.0480 136.9303 0003516   8.3019 351.8048 15.51524353330036
STARLINK-1297,45395,53.0475,0.0004449,15.53869615,402.4224972339989,408.45852450316943,1 45395U 20019AM  26067.59603687  .00108013  00000+0  16337-2 0  9997,2 45395  53.0475 135.9806 0004449  13.8392 346.2739 15.53869615329244
STARLINK-1307,45397,53.0549,0.0001964,15.49959993,415.50845898893294,418.1775271302067,1 45397U 20019AP  26067.45766863  .00037840  00000+0  66956-3 0  9992,2 45397  53.0549 136.6550 0001964  39.9868 320.1284 15.49959993329866
STARLINK-1255,45399,53.0414,0.0001726,15.51577054,410.94900038959895,413.2929974508261,1 45399U 20019AR  26067.52969034  .00097343  00000+0  16024-2 0  9991,2 45399  53.0414 108.3225 0001726 321.1601  38.9283 15.51577054330256
